start=new Date('2023-01-17T00:00:00.000Z').valueOf();
sats=[{"ELEMENT_SET_NO":"999","MEAN_MOTION_DOT":"-0.00001403","TLE_LINE1":"1 52347U 22045S   23016.84416500 -.00001403  00000-0 -70166-4 0  9998","BSTAR":"-0.00007016600000","TIME_SYSTEM":"UTC","DECAY_DATE":null,"OBJECT_TYPE":"PAYLOAD","ECCENTRICITY":"0.00018220","REV_AT_EPOCH":"4249","CLASSIFICATION_TYPE":"U","EPOCH":"2023-01-16T20:15:35.856000","MEAN_ANOMALY":"12.6471","OBJECT_NAME":"STARLINK-3826","PERIAPSIS":"538.593","OBJECT_ID":"2022-045S","MEAN_MOTION":"15.08804530","NORAD_CAT_ID":"52347","SITE":"AFETR","RCS_SIZE":"LARGE","EPHEMERIS_TYPE":"0","REF_FRAME":"TEME","CENTER_NAME":"EARTH","ARG_OF_PERICENTER":"347.4475","TLE_LINE2":"2 52347  53.2161 312.0141 0001822 347.4475  12.6471 15.08804530 42494","MEAN_MOTION_DDOT":"0.0000000000000","INCLINATION":"53.2161","MEAN_ELEMENT_THEORY":"SGP4","RA_OF_ASC_NODE":"312.0141","PERIOD":"95.440","SEMIMAJOR_AXIS":"6917.989","APOAPSIS":"541.114","GP_ID":"223252855","FILE":"3750956","COUNTRY_CODE":"US","LAUNCH_DATE":"2022-04-29"},{"OBJECT_ID":"2022-045T","PERIAPSIS":"538.818","MEAN_ANOMALY":"292.1768","EPOCH":"2023-01-16T02:19:50.659104","OBJECT_NAME":"STARLINK-3829","CLASSIFICATION_TYPE":"U","REV_AT_EPOCH":"4238","ECCENTRICITY":"0.00011460","OBJECT_TYPE":"PAYLOAD","DECAY_DATE":null,"TIME_SYSTEM":"UTC","BSTAR":"0.00309890000000","ELEMENT_SET_NO":"999","MEAN_MOTION_DOT":"0.00049437","TLE_LINE1":"1 52348U 22045T   23016.09711411  .00049437  00000-0  30989-2 0  9999","LAUNCH_DATE":"2022-04-29","FILE":"3749606","GP_ID":"223200784","COUNTRY_CODE":"US","SEMIMAJOR_AXIS":"6917.746","APOAPSIS":"540.404","PERIOD":"95.435","MEAN_ELEMENT_THEORY":"SGP4","RA_OF_ASC_NODE":"315.3607","TLE_LINE2":"2 52348  53.2137 315.3607 0001146  67.9345 292.1768 15.08884014 42387","ARG_OF_PERICENTER":"67.9345","MEAN_MOTION_DDOT":"0.0000000000000","INCLINATION":"53.2137","REF_FRAME":"TEME","CENTER_NAME":"EARTH","EPHEMERIS_TYPE":"0","RCS_SIZE":"LARGE","SITE":"AFETR","NORAD_CAT_ID":"52348","MEAN_MOTION":"15.08884014"},{"SEMIMAJOR_AXIS":"6917.940","APOAPSIS":"540.978","FILE":"3750956","GP_ID":"223253857","COUNTRY_CODE":"US","LAUNCH_DATE":"2022-04-29","MEAN_MOTION_DDOT":"0.0000000000000","TLE_LINE2":"2 52349  53.2177 312.0325 0001695  93.6178 266.5008 15.08820522 42490","ARG_OF_PERICENTER":"93.6178","INCLINATION":"53.2177","MEAN_ELEMENT_THEORY":"SGP4","RA_OF_ASC_NODE":"312.0325","PERIOD":"95.439","EPHEMERIS_TYPE":"0","REF_FRAME":"TEME","CENTER_NAME":"EARTH","MEAN_MOTION":"15.08820522","NORAD_CAT_ID":"52349","SITE":"AFETR","RCS_SIZE":"LARGE","MEAN_ANOMALY":"266.5008","EPOCH":"2023-01-16T20:05:00.553344","OBJECT_NAME":"STARLINK-3819","OBJECT_ID":"2022-045U","PERIAPSIS":"538.632","ECCENTRICITY":"0.00016950","REV_AT_EPOCH":"4249","CLASSIFICATION_TYPE":"U","BSTAR":"-0.00020114000000","TIME_SYSTEM":"UTC","OBJECT_TYPE":"PAYLOAD","DECAY_DATE":null,"ELEMENT_SET_NO":"999","TLE_LINE1":"1 52349U 22045U   23016.83681196 -.00003486  00000-0 -20114-3 0  9994","MEAN_MOTION_DOT":"-0.00003486"},{"RA_OF_ASC_NODE":"311.8008","MEAN_ELEMENT_THEORY":"SGP4","PERIOD":"95.439","MEAN_MOTION_DDOT":"0.0000000000000","TLE_LINE2":"2 52350  53.2130 311.8008 0001439  95.8680 264.2476 15.08822601 42500","INCLINATION":"53.2130","ARG_OF_PERICENTER":"95.8680","COUNTRY_CODE":"US","FILE":"3750956","GP_ID":"223252105","LAUNCH_DATE":"2022-04-29","APOAPSIS":"540.794","SEMIMAJOR_AXIS":"6917.934","SITE":"AFETR","RCS_SIZE":"LARGE","MEAN_MOTION":"15.08822601","NORAD_CAT_ID":"52350","CENTER_NAME":"EARTH","REF_FRAME":"TEME","EPHEMERIS_TYPE":"0","CLASSIFICATION_TYPE":"U","REV_AT_EPOCH":"4250","ECCENTRICITY":"0.00014390","OBJECT_ID":"2022-045V","PERIAPSIS":"538.803","OBJECT_NAME":"STARLINK-3754","EPOCH":"2023-01-16T21:19:10.662240","MEAN_ANOMALY":"264.2476","MEAN_MOTION_DOT":"-0.00010026","TLE_LINE1":"1 52350U 22045V   23016.88831785 -.00010026  00000-0 -61298-3 0  9998","ELEMENT_SET_NO":"999","TIME_SYSTEM":"UTC","DECAY_DATE":null,"OBJECT_TYPE":"PAYLOAD","BSTAR":"-0.00061298000000"},{"TLE_LINE2":"2 52352  53.2157 311.8569 0001649  77.3605 282.7572 15.08823582 42509","MEAN_MOTION_DDOT":"0.0000000000000","ARG_OF_PERICENTER":"77.3605","INCLINATION":"53.2157","MEAN_ELEMENT_THEORY":"SGP4","RA_OF_ASC_NODE":"311.8569","PERIOD":"95.439","SEMIMAJOR_AXIS":"6917.931","APOAPSIS":"540.936","GP_ID":"223252355","FILE":"3750956","COUNTRY_CODE":"US","LAUNCH_DATE":"2022-04-29","MEAN_MOTION":"15.08823582","NORAD_CAT_ID":"52352","SITE":"AFETR","RCS_SIZE":"LARGE","EPHEMERIS_TYPE":"0","REF_FRAME":"TEME","CENTER_NAME":"EARTH","REV_AT_EPOCH":"4250","ECCENTRICITY":"0.00016490","CLASSIFICATION_TYPE":"U","EPOCH":"2023-01-16T21:03:17.396352","MEAN_ANOMALY":"282.7572","OBJECT_NAME":"STARLINK-3838","PERIAPSIS":"538.655","OBJECT_ID":"2022-045X","ELEMENT_SET_NO":"999","MEAN_MOTION_DOT":"-0.00003998","TLE_LINE1":"1 52352U 22045X   23016.87728468 -.00003998  00000-0 -23332-3 0  9999","BSTAR":"-0.00023332000000","TIME_SYSTEM":"UTC","DECAY_DATE":null,"OBJECT_TYPE":"PAYLOAD"},{"TLE_LINE1":"1 52353U 22045Y   23016.88464594 -.00007058  00000-0 -42607-3 0  9995","MEAN_MOTION_DOT":"-0.00007058","ELEMENT_SET_NO":"999","TIME_SYSTEM":"UTC","DECAY_DATE":null,"OBJECT_TYPE":"PAYLOAD","BSTAR":"-0.00042607000000","CLASSIFICATION_TYPE":"U","ECCENTRICITY":"0.00014460","REV_AT_EPOCH":"4250","OBJECT_ID":"2022-045Y","PERIAPSIS":"538.822","OBJECT_NAME":"STARLINK-3807","MEAN_ANOMALY":"283.7812","EPOCH":"2023-01-16T21:13:53.409216","SITE":"AFETR","RCS_SIZE":"LARGE","MEAN_MOTION":"15.08814803","NORAD_CAT_ID":"52353","CENTER_NAME":"EARTH","REF_FRAME":"TEME","EPHEMERIS_TYPE":"0","RA_OF_ASC_NODE":"311.8249","MEAN_ELEMENT_THEORY":"SGP4","PERIOD":"95.439","TLE_LINE2":"2 52353  53.2151 311.8249 0001446  76.3342 283.7812 15.08814803 42505","MEAN_MOTION_DDOT":"0.0000000000000","ARG_OF_PERICENTER":"76.3342","INCLINATION":"53.2151","COUNTRY_CODE":"US","FILE":"3750956","GP_ID":"223253603","LAUNCH_DATE":"2022-04-29","APOAPSIS":"540.823","SEMIMAJOR_AXIS":"6917.957"},{"LAUNCH_DATE":"2022-04-29","FILE":"3750956","GP_ID":"223253357","COUNTRY_CODE":"US","SEMIMAJOR_AXIS":"6917.963","APOAPSIS":"541.220","PERIOD":"95.439","MEAN_ELEMENT_THEORY":"SGP4","RA_OF_ASC_NODE":"311.9164","TLE_LINE2":"2 52354  53.2174 311.9164 0002012  64.8844 295.2356 15.08813102 42509","ARG_OF_PERICENTER":"64.8844","MEAN_MOTION_DDOT":"0.0000000000000","INCLINATION":"53.2174","REF_FRAME":"TEME","CENTER_NAME":"EARTH","EPHEMERIS_TYPE":"0","RCS_SIZE":"LARGE","SITE":"AFETR","NORAD_CAT_ID":"52354","MEAN_MOTION":"15.08813102","OBJECT_ID":"2022-045Z","PERIAPSIS":"538.436","EPOCH":"2023-01-16T20:47:24.714528","MEAN_ANOMALY":"295.2356","OBJECT_NAME":"STARLINK-3876","CLASSIFICATION_TYPE":"U","ECCENTRICITY":"0.00020120","REV_AT_EPOCH":"4250","OBJECT_TYPE":"PAYLOAD","DECAY_DATE":null,"TIME_SYSTEM":"UTC","BSTAR":"0.00002050500000","ELEMENT_SET_NO":"999","MEAN_MOTION_DOT":"0.00000038","TLE_LINE1":"1 52354U 22045Z   23016.86625827  .00000038  00000-0  20505-4 0  9995"},{"TLE_LINE1":"1 52355U 22045AA  23016.54975621 -.00003303  00000-0 -18952-3 0  9993","MEAN_MOTION_DOT":"-0.00003303","ELEMENT_SET_NO":"999","BSTAR":"-0.00018952000000","DECAY_DATE":null,"OBJECT_TYPE":"PAYLOAD","TIME_SYSTEM":"UTC","ECCENTRICITY":"0.00014870","REV_AT_EPOCH":"4245","CLASSIFICATION_TYPE":"U","OBJECT_NAME":"STARLINK-3877","MEAN_ANOMALY":"299.7848","EPOCH":"2023-01-16T13:11:38.936544","PERIAPSIS":"538.730","OBJECT_ID":"2022-045AA","NORAD_CAT_ID":"52355","MEAN_MOTION":"15.08835692","RCS_SIZE":"LARGE","SITE":"AFETR","EPHEMERIS_TYPE":"0","CENTER_NAME":"EARTH","REF_FRAME":"TEME","TLE_LINE2":"2 52355  53.2171 313.3261 0001487  60.3292 299.7848 15.08835692 42451","MEAN_MOTION_DDOT":"0.0000000000000","ARG_OF_PERICENTER":"60.3292","INCLINATION":"53.2171","PERIOD":"95.438","RA_OF_ASC_NODE":"313.3261","MEAN_ELEMENT_THEORY":"SGP4","APOAPSIS":"540.787","SEMIMAJOR_AXIS":"6917.894","LAUNCH_DATE":"2022-04-29","COUNTRY_CODE":"US","GP_ID":"223202285","FILE":"3749606"},{"SITE":"AFETR","RCS_SIZE":"LARGE","MEAN_MOTION":"15.08832238","NORAD_CAT_ID":"52356","REF_FRAME":"TEME","CENTER_NAME":"EARTH","EPHEMERIS_TYPE":"0","MEAN_ELEMENT_THEORY":"SGP4","RA_OF_ASC_NODE":"312.2075","PERIOD":"95.438","INCLINATION":"53.2114","TLE_LINE2":"2 52356  53.2114 312.2075 0002044  82.9561 277.1664 15.08832238 42492","MEAN_MOTION_DDOT":"0.0000000000000","ARG_OF_PERICENTER":"82.9561","FILE":"3750956","GP_ID":"223252856","COUNTRY_CODE":"US","LAUNCH_DATE":"2022-04-29","SEMIMAJOR_AXIS":"6917.904","APOAPSIS":"541.183","ELEMENT_SET_NO":"999","TLE_LINE1":"1 52356U 22045AB  23016.80095446 -.00001659  00000-0 -86144-4 0  9992","MEAN_MOTION_DOT":"-0.00001659","TIME_SYSTEM":"UTC","DECAY_DATE":null,"OBJECT_TYPE":"PAYLOAD","BSTAR":"-0.00008614400000","CLASSIFICATION_TYPE":"U","ECCENTRICITY":"0.00020440","REV_AT_EPOCH":"4249","OBJECT_ID":"2022-045AB","PERIAPSIS":"538.355","EPOCH":"2023-01-16T19:13:22.465344","MEAN_ANOMALY":"277.1664","OBJECT_NAME":"STARLINK-3801"},{"MEAN_MOTION_DDOT":"0.0000000000000","TLE_LINE2":"2 52357  53.2135 312.1792 0001548  70.6427 289.4732 15.08841905 42497","ARG_OF_PERICENTER":"70.6427","INCLINATION":"53.2135","RA_OF_ASC_NODE":"312.1792","MEAN_ELEMENT_THEORY":"SGP4","PERIOD":"95.437","APOAPSIS":"540.810","SEMIMAJOR_AXIS":"6917.875","COUNTRY_CODE":"US","FILE":"3750956","GP_ID":"223253103","LAUNCH_DATE":"2022-04-29","MEAN_MOTION":"15.08841905","NORAD_CAT_ID":"52357","SITE":"AFETR","RCS_SIZE":"LARGE","EPHEMERIS_TYPE":"0","CENTER_NAME":"EARTH","REF_FRAME":"TEME","REV_AT_EPOCH":"4249","ECCENTRICITY":"0.00015480","CLASSIFICATION_TYPE":"U","OBJECT_NAME":"STARLINK-3821","EPOCH":"2023-01-16T19:22:35.173920","MEAN_ANOMALY":"289.4732","OBJECT_ID":"2022-045AC","PERIAPSIS":"538.669","MEAN_MOTION_DOT":"-0.00000338","TLE_LINE1":"1 52357U 22045AC  23016.80735155 -.00000338  00000-0 -31667-5 0  9995","ELEMENT_SET_NO":"999","BSTAR":"-0.00000316670000","TIME_SYSTEM":"UTC","DECAY_DATE":null,"OBJECT_TYPE":"PAYLOAD"}];
